[{"OBJECT_NAME":"BUFENG 1A","OBJECT_ID":"2019-032A","EPOCH":"2026-03-09T22:03:27.507168","MEAN_MOTION":15.26012088,"ECCENTRICITY":0.00054719,"INCLINATION":44.9758,"RA_OF_ASC_NODE":238.6688,"ARG_OF_PERICENTER":55.4463,"MEAN_ANOMALY":304.6935,"EPHEMERIS_TYPE":0,"CLASSIFICATION_TYPE":"U","NORAD_CAT_ID":44310,"ELEMENT_SET_NO":999,"REV_AT_EPOCH":37201,"BSTAR":0.00062413703,"MEAN_MOTION_DOT":0.00016103,"MEAN_MOTION_DDOT":0},{"OBJECT_NAME":"STARLINK-34010","OBJECT_ID":"2025-093N","EPOCH":"2026-03-09T10:27:28.056096","MEAN_MOTION":15.27594806,"ECCENTRICITY":0.00023294,"INCLINATION":43.0039,"RA_OF_ASC_NODE":79.3094,"ARG_OF_PERICENTER":290.9216,"MEAN_ANOMALY":69.1387,"EPHEMERIS_TYPE":0,"CLASSIFICATION_TYPE":"U","NORAD_CAT_ID":63848,"ELEMENT_SET_NO":999,"REV_AT_EPOCH":4771,"BSTAR":0.00098401627,"MEAN_MOTION_DOT":0.00026928,"MEAN_MOTION_DDOT":0}]
